OBJECT_NAME,OBJECT_ID,EPOCH,MEAN_MOTION,ECCENTRICITY,INCLINATION,RA_OF_ASC_NODE,ARG_OF_PERICENTER,MEAN_ANOMALY,EPHEMERIS_TYPE,CLASSIFICATION_TYPE,NORAD_CAT_ID,ELEMENT_SET_NO,REV_AT_EPOCH,BSTAR,MEAN_MOTION_DOT,MEAN_MOTION_DDOT
KUIPER-00616,2026-151N,2026-07-13T13:18:42.484896,15.38365807,.0003231,51.8774,188.2423,118.4498,241.6815,0,U,69775,999,176,.2933E-3,.10892E-3,0
KUIPER-00617,2026-151P,2026-07-13T13:23:49.896960,15.37756189,.0004109,51.8787,188.2606,129.0602,231.0751,0,U,69776,999,176,.31929E-3,.11655E-3,0
KUIPER-00619,2026-151Q,2026-07-13T11:42:27.261792,15.38509808,.00020496,51.8786,188.5383,55.3478,304.7703,0,U,69777,999,175,.34185553E-3,.12825E-3,0
KUIPER-00621,2026-151R,2026-07-13T11:44:52.150272,15.38304218,.00021929,51.8779,188.5537,95.9796,264.1441,0,U,69778,999,175,.27949854E-3,.10338E-3,0
KUIPER-00622,2026-151S,2026-07-13T13:32:09.739104,15.36970364,.0006966,51.8726,188.3023,144.2615,215.8839,0,U,69779,999,176,.39227E-3,.1405E-3,0
KUIPER-00623,2026-151T,2026-07-13T15:00:39.017376,15.37406821,.0005031,51.8766,187.9653,127.9580,232.1862,0,U,69780,999,177,.32978E-3,.11913E-3,0
KUIPER-00626,2026-151U,2026-07-13T15:17:02.245056,15.35552978,.0009957,51.8715,188.0366,161.6369,198.4978,0,U,69781,999,177,-.17174E-3,-.642E-4,0
KUIPER-00627,2026-151V,2026-07-13T15:19:29.303040,15.35455187,.0011375,51.8695,188.0457,163.7814,196.3538,0,U,69782,999,177,.31684E-4,.721E-5,0
KUIPER-00629,2026-151W,2026-07-13T13:32:48.901632,15.36945234,.0007214,51.8735,188.3068,140.5053,219.6461,0,U,69783,999,176,.31561E-3,.11215E-3,0
KUIPER-00631,2026-151X,2026-07-13T13:35:14.292096,15.36717343,.0007831,51.8701,188.3183,148.8485,211.2967,0,U,69784,999,176,.30825E-3,.10863E-3,0
KUIPER-00634,2026-151Y,2026-07-13T10:17:19.322304,15.37708366,.00037538,51.8762,188.8963,128.5208,231.6116,0,U,69785,999,174,.21681388E-3,.7771E-4,0
KUIPER-00639,2026-151Z,2026-07-13T13:40:43.127040,15.35898155,.000971,51.8684,188.3396,155.0519,205.0938,0,U,69786,999,176,.35834E-3,.12363E-3,0
KUIPER-00641,2026-151AA,2026-07-13T15:20:08.825856,15.35094393,.0010516,51.8671,188.0509,153.0740,207.0793,0,U,69787,999,177,.29123E-3,.9713E-4,0
KUIPER-00644,2026-151AB,2026-07-13T13:37:10.788672,15.36536999,.0008501,51.8731,188.3261,152.0590,208.0854,0,U,69788,999,176,.31805E-3,.11156E-3,0
KUIPER-00646,2026-151AC,2026-07-13T10:32:50.620992,15.35967857,.00100381,51.8702,188.9638,161.9649,198.1695,0,U,69789,999,174,.77620227E-3,.27353E-3,0
KUIPER-00647,2026-151AD,2026-07-13T13:44:39.513120,15.35630920,.0010603,51.8671,188.3556,160.0161,200.1242,0,U,69790,999,176,.2943E-3,.9994E-4,0
KUIPER-00662,2026-151AE,2026-07-13T19:50:50.758368,15.36575137,.0008447,51.8721,187.0643,148.8316,211.3173,0,U,69791,999,180,-.24634E-5,-.482E-5,0
LINK,2026-152A,2026-07-13T17:17:33.709056,15.66723284,.0024364,20.5929,338.7490,334.8465,25.0795,0,U,69792,999,162,.10644E-2,.121618E-2,0
ISS OBJECT YJ,1998-067YJ,2026-07-13T10:31:16.306752,15.49957233,.00078116,51.6301,170.1134,305.5118,54.5142,0,U,69794,999,172,.3226418E-3,.17988E-3,0
ISS OBJECT YK,1998-067YK,2026-07-13T08:54:07.017120,15.50575827,.00068072,51.6301,170.4128,314.4532,45.5899,0,U,69795,999,171,.58846051E-3,.33989E-3,0
ISS OBJECT YL,1998-067YL,2026-07-13T08:55:06.840480,15.50369871,.00088613,51.6299,170.4178,306.7235,53.2940,0,U,69796,999,170,.45406084E-3,.25917E-3,0
ISS OBJECT YM,1998-067YM,2026-07-13T08:54:49.285728,15.50409169,.00096183,51.6301,170.4160,297.8324,62.1689,0,U,69797,999,169,.46456821E-3,.26574E-3,0
ISS OBJECT YN,1998-067YN,2026-07-13T08:55:28.567488,15.50236052,.00092309,51.6304,170.4185,308.8038,51.2126,0,U,69798,999,171,.3234728E-3,.18226E-3,0
ISS OBJECT YP,1998-067YP,2026-07-13T08:54:42.560352,15.50408240,.00097817,51.6300,170.4156,297.9312,62.0686,0,U,69799,999,170,.45104091E-3,.25785E-3,0
STARLINK-37520,2026-154A,2026-07-13T20:00:01.999008,15.89090513,.0001162,53.1593,299.8456,53.8097,80.2083,0,U,69819,999,245,-.65952E-2,-.1686087E-1,0
STARLINK-37553,2026-154B,2026-07-13T20:00:01.999008,15.89205680,.0001132,53.1591,299.8382,56.3207,81.1596,0,U,69820,999,245,-.65916E-2,-.1693873E-1,0
STARLINK-37561,2026-154C,2026-07-13T20:00:01.999008,15.89312385,.0001161,53.1591,299.8311,58.3115,82.6485,0,U,69821,999,245,-.65708E-2,-.1697269E-1,0
STARLINK-37521,2026-154D,2026-07-13T20:00:01.999008,15.89453193,.0001092,53.1592,299.8247,58.2805,85.7353,0,U,69822,999,245,-.65009E-2,-.1692082E-1,0
STARLINK-37628,2026-154E,2026-07-13T20:00:01.999008,15.89561810,.0001141,53.1590,299.8176,58.4462,88.9524,0,U,69823,999,245,-.64391E-2,-.1686278E-1,0
