KUIPER-00616            
1 69775U 26151N   26194.55465839  .00010892  00000+0  29330-3 0  9995
2 69775  51.8774 188.2423 0003231 118.4498 241.6815 15.38365807  1767
KUIPER-00617            
1 69776U 26151P   26194.55821640  .00011655  00000+0  31929-3 0  9997
2 69776  51.8787 188.2606 0004109 129.0602 231.0751 15.37756189  1763
KUIPER-00619            
1 69777U 26151Q   26194.48781553  .00012825  00000+0  34186-3 0  9996
2 69777  51.8786 188.5383 0002049  55.3478 304.7703 15.38509808  1750
KUIPER-00621            
1 69778U 26151R   26194.48949248  .00010338  00000+0  27950-3 0  9992
2 69778  51.8779 188.5537 0002192  95.9796 264.1441 15.38304218  1752
KUIPER-00622            
1 69779U 26151S   26194.56400161  .00014050  00000+0  39227-3 0  9993
2 69779  51.8726 188.3023 0006966 144.2615 215.8839 15.36970364  1768
KUIPER-00623            
1 69780U 26151T   26194.62545159  .00011913  00000+0  32978-3 0  9990
2 69780  51.8766 187.9653 0005031 127.9580 232.1862 15.37406821  1771
KUIPER-00626            
1 69781U 26151U   26194.63683154 -.00006420  00000+0 -17174-3 0  9990
2 69781  51.8715 188.0366 0009957 161.6369 198.4978 15.35552978  1775
KUIPER-00627            
1 69782U 26151V   26194.63853360  .00000721  00000+0  31684-4 0  9998
2 69782  51.8695 188.0457 0011375 163.7814 196.3538 15.35455187  1772
KUIPER-00629            
1 69783U 26151W   26194.56445488  .00011215  00000+0  31561-3 0  9992
2 69783  51.8735 188.3068 0007214 140.5053 219.6461 15.36945234  1765
KUIPER-00631            
1 69784U 26151X   26194.56613764  .00010863  00000+0  30825-3 0  9997
2 69784  51.8701 188.3183 0007831 148.8485 211.2967 15.36717343  1769
KUIPER-00634            
1 69785U 26151Y   26194.42869586  .00007771  00000+0  21681-3 0  9992
2 69785  51.8762 188.8963 0003753 128.5208 231.6116 15.37708366  1741
KUIPER-00639            
1 69786U 26151Z   26194.56994360  .00012363  00000+0  35834-3 0  9995
2 69786  51.8684 188.3396 0009710 155.0519 205.0938 15.35898155  1762
KUIPER-00641            
1 69787U 26151AA  26194.63899104  .00009713  00000+0  29123-3 0  9993
2 69787  51.8671 188.0509 0010516 153.0740 207.0793 15.35094393  1776
KUIPER-00644            
1 69788U 26151AB  26194.56748598  .00011156  00000+0  31805-3 0  9990
2 69788  51.8731 188.3261 0008501 152.0590 208.0854 15.36536999  1767
KUIPER-00646            
1 69789U 26151AC  26194.43947478  .00027353  00000+0  77620-3 0  9996
2 69789  51.8702 188.9638 0010038 161.9649 198.1695 15.35967857  1742
KUIPER-00647            
1 69790U 26151AD  26194.57267955  .00009994  00000+0  29430-3 0  9995
2 69790  51.8671 188.3556 0010603 160.0161 200.1242 15.35630920  1761
KUIPER-00662            
1 69791U 26151AE  26194.82697637 -.00000482  00000+0 -24634-5 0  9996
2 69791  51.8721 187.0643 0008447 148.8316 211.3173 15.36575137  1801
LINK                    
1 69792U 26152A   26194.72052904  .00121618  00000+0  10644-2 0  9995
2 69792  20.5929 338.7490 0024364 334.8465  25.0795 15.66723284  1629
ISS OBJECT YJ           
1 69794U 98067YJ  26194.43838318  .00017988  00000+0  32264-3 0  9997
2 69794  51.6301 170.1134 0007811 305.5118  54.5142 15.49957233  1729
ISS OBJECT YK           
1 69795U 98067YK  26194.37091455  .00033989  00000+0  58846-3 0  9997
2 69795  51.6301 170.4128 0006807 314.4532  45.5899 15.50575827  1714
ISS OBJECT YL           
1 69796U 98067YL  26194.37160695  .00025917  00000+0  45406-3 0  9991
2 69796  51.6299 170.4178 0008861 306.7235  53.2940 15.50369871  1704
ISS OBJECT YM           
1 69797U 98067YM  26194.37140377  .00026574  00000+0  46457-3 0  9994
2 69797  51.6301 170.4160 0009618 297.8324  62.1689 15.50409169  1692
ISS OBJECT YN           
1 69798U 98067YN  26194.37185842  .00018226  00000+0  32347-3 0  9999
2 69798  51.6304 170.4185 0009230 308.8038  51.2126 15.50236052  1715
ISS OBJECT YP           
1 69799U 98067YP  26194.37132593  .00025785  00000+0  45104-3 0  9998
2 69799  51.6300 170.4156 0009781 297.9312  62.0686 15.50408240  1704
STARLINK-37520          
1 69819U 26154A   26194.83335647 -.01686087  00000+0 -65952-2 0  9998
2 69819  53.1593 299.8456 0001162  53.8097  80.2083 15.89090513  2459
STARLINK-37553          
1 69820U 26154B   26194.83335647 -.01693873  00000+0 -65916-2 0  9991
2 69820  53.1591 299.8382 0001132  56.3207  81.1596 15.89205680  2457
STARLINK-37561          
1 69821U 26154C   26194.83335647 -.01697269  00000+0 -65708-2 0  9994
2 69821  53.1591 299.8311 0001161  58.3115  82.6485 15.89312385  2456
STARLINK-37521          
1 69822U 26154D   26194.83335647 -.01692082  00000+0 -65009-2 0  9997
2 69822  53.1592 299.8247 0001092  58.2805  85.7353 15.89453193  2455
STARLINK-37628          
1 69823U 26154E   26194.83335647 -.01686278  00000+0 -64391-2 0  9991
2 69823  53.1590 299.8176 0001141  58.4462  88.9524 15.89561810  2452
